CCSDS_OMM_VERS = 2.0
CREATION_DATE  = 
ORIGINATOR     = 

OBJECT_NAME    = UNKNOWN
OBJECT_ID      = 
CENTER_NAME    = EARTH
REF_FRAME      = TEME
TIME_SYSTEM    = UTC
MEAN_ELEMENT_THEORY = SGP/SGP4

EPOCH          = 2026-01-31T03:12:17.535456
MEAN_MOTION    = 13.91809528
ECCENTRICITY   = .0104085
INCLINATION    = 99.2485
RA_OF_ASC_NODE = 91.4973
ARG_OF_PERICENTER = 150.5684
MEAN_ANOMALY   = 238.1977

EPHEMERIS_TYPE = 0
CLASSIFICATION_TYPE = U
NORAD_CAT_ID   = 87237
ELEMENT_SET_NO = 999
REV_AT_EPOCH   = 61863
BSTAR          = .29817E-3
MEAN_MOTION_DOT = .352E-5
MEAN_MOTION_DDOT = 0

CCSDS_OMM_VERS = 2.0
CREATION_DATE  = 
ORIGINATOR     = 

OBJECT_NAME    = UNKNOWN
OBJECT_ID      = 
CENTER_NAME    = EARTH
REF_FRAME      = TEME
TIME_SYSTEM    = UTC
MEAN_ELEMENT_THEORY = SGP/SGP4

EPOCH          = 2026-02-02T08:10:24.425472
MEAN_MOTION    = 14.53173602
ECCENTRICITY   = .0017163
INCLINATION    = 82.8723
RA_OF_ASC_NODE = 39.0025
ARG_OF_PERICENTER = 231.5923
MEAN_ANOMALY   = 128.3736

EPHEMERIS_TYPE = 0
CLASSIFICATION_TYPE = U
NORAD_CAT_ID   = 87239
ELEMENT_SET_NO = 999
REV_AT_EPOCH   = 63536
BSTAR          = .28203E-2
MEAN_MOTION_DOT = .11728E-3
MEAN_MOTION_DDOT = 0

CCSDS_OMM_VERS = 2.0
CREATION_DATE  = 
ORIGINATOR     = 

OBJECT_NAME    = UNKNOWN
OBJECT_ID      = 
CENTER_NAME    = EARTH
REF_FRAME      = TEME
TIME_SYSTEM    = UTC
MEAN_ELEMENT_THEORY = SGP/SGP4

EPOCH          = 2026-02-03T01:38:08.764800
MEAN_MOTION    = 14.16341894
ECCENTRICITY   = .0427489
INCLINATION    = 65.6419
RA_OF_ASC_NODE = 267.8134
ARG_OF_PERICENTER = 94.8579
MEAN_ANOMALY   = 49.6415

EPHEMERIS_TYPE = 0
CLASSIFICATION_TYPE = U
NORAD_CAT_ID   = 87245
ELEMENT_SET_NO = 999
REV_AT_EPOCH   = 62161
BSTAR          = .12607E-2
MEAN_MOTION_DOT = .6079E-4
MEAN_MOTION_DDOT = 0

CCSDS_OMM_VERS = 2.0
CREATION_DATE  = 
ORIGINATOR     = 

OBJECT_NAME    = UNKNOWN
OBJECT_ID      = 
CENTER_NAME    = EARTH
REF_FRAME      = TEME
TIME_SYSTEM    = UTC
MEAN_ELEMENT_THEORY = SGP/SGP4

EPOCH          = 2026-02-03T13:59:24.626688
MEAN_MOTION    = 14.22324962
ECCENTRICITY   = .0419645
INCLINATION    = 65.7542
RA_OF_ASC_NODE = 94.1828
ARG_OF_PERICENTER = 45.5134
MEAN_ANOMALY   = 317.9461

EPHEMERIS_TYPE = 0
CLASSIFICATION_TYPE = U
NORAD_CAT_ID   = 87271
ELEMENT_SET_NO = 999
REV_AT_EPOCH   = 61988
BSTAR          = .90109E-3
MEAN_MOTION_DOT = .4882E-4
MEAN_MOTION_DDOT = 0

CCSDS_OMM_VERS = 2.0
CREATION_DATE  = 
ORIGINATOR     = 

OBJECT_NAME    = UNKNOWN
OBJECT_ID      = 
CENTER_NAME    = EARTH
REF_FRAME      = TEME
TIME_SYSTEM    = UTC
MEAN_ELEMENT_THEORY = SGP/SGP4

EPOCH          = 2026-02-01T14:54:11.677536
MEAN_MOTION    = 13.48609443
ECCENTRICITY   = .0129301
INCLINATION    = 64.6152
RA_OF_ASC_NODE = 109.5285
ARG_OF_PERICENTER = 250.9755
MEAN_ANOMALY   = 107.7239

EPHEMERIS_TYPE = 0
CLASSIFICATION_TYPE = U
NORAD_CAT_ID   = 87280
ELEMENT_SET_NO = 999
REV_AT_EPOCH   = 54071
BSTAR          = .88366E-3
MEAN_MOTION_DOT = .496E-5
MEAN_MOTION_DDOT = 0

CCSDS_OMM_VERS = 2.0
CREATION_DATE  = 
ORIGINATOR     = 

OBJECT_NAME    = UNKNOWN
OBJECT_ID      = 
CENTER_NAME    = EARTH
REF_FRAME      = TEME
TIME_SYSTEM    = UTC
MEAN_ELEMENT_THEORY = SGP/SGP4

EPOCH          = 2026-02-03T08:07:56.987328
MEAN_MOTION    = 14.19006020
ECCENTRICITY   = .0428273
INCLINATION    = 65.8998
RA_OF_ASC_NODE = 5.3651
ARG_OF_PERICENTER = 331.1782
MEAN_ANOMALY   = 26.6231

EPHEMERIS_TYPE = 0
CLASSIFICATION_TYPE = U
NORAD_CAT_ID   = 87293
ELEMENT_SET_NO = 999
REV_AT_EPOCH   = 62145
BSTAR          = .31042E-2
MEAN_MOTION_DOT = .16335E-3
MEAN_MOTION_DDOT = 0

CCSDS_OMM_VERS = 2.0
CREATION_DATE  = 
ORIGINATOR     = 

OBJECT_NAME    = UNKNOWN
OBJECT_ID      = 
CENTER_NAME    = EARTH
REF_FRAME      = TEME
TIME_SYSTEM    = UTC
MEAN_ELEMENT_THEORY = SGP/SGP4

EPOCH          = 2026-02-03T16:41:15.653184
MEAN_MOTION    = 13.99677267
ECCENTRICITY   = .0025897
INCLINATION    = 100.0944
RA_OF_ASC_NODE = 27.4865
ARG_OF_PERICENTER = 149.1304
MEAN_ANOMALY   = 211.1386

EPHEMERIS_TYPE = 0
CLASSIFICATION_TYPE = U
NORAD_CAT_ID   = 87300
ELEMENT_SET_NO = 999
REV_AT_EPOCH   = 62052
BSTAR          = .14461E-2
MEAN_MOTION_DOT = .2069E-4
MEAN_MOTION_DDOT = 0

CCSDS_OMM_VERS = 2.0
CREATION_DATE  = 
ORIGINATOR     = 

OBJECT_NAME    = UNKNOWN
OBJECT_ID      = 
CENTER_NAME    = EARTH
REF_FRAME      = TEME
TIME_SYSTEM    = UTC
MEAN_ELEMENT_THEORY = SGP/SGP4

EPOCH          = 2026-02-02T05:46:28.041312
MEAN_MOTION    = 14.75672675
ECCENTRICITY   = .0017942
INCLINATION    = 74.0154
RA_OF_ASC_NODE = 220.1105
ARG_OF_PERICENTER = 179.6498
MEAN_ANOMALY   = 180.4692

EPHEMERIS_TYPE = 0
CLASSIFICATION_TYPE = U
NORAD_CAT_ID   = 87304
ELEMENT_SET_NO = 999
REV_AT_EPOCH   = 65407
BSTAR          = .26406E-3
MEAN_MOTION_DOT = .1775E-4
MEAN_MOTION_DDOT = 0

CCSDS_OMM_VERS = 2.0
CREATION_DATE  = 
ORIGINATOR     = 

OBJECT_NAME    = UNKNOWN
OBJECT_ID      = 
CENTER_NAME    = EARTH
REF_FRAME      = TEME
TIME_SYSTEM    = UTC
MEAN_ELEMENT_THEORY = SGP/SGP4

EPOCH          = 2026-02-03T05:14:45.230784
MEAN_MOTION    = 13.70331519
ECCENTRICITY   = .0418954
INCLINATION    = 66.5963
RA_OF_ASC_NODE = 319.0824
ARG_OF_PERICENTER = 20.9261
MEAN_ANOMALY   = 340.8395

EPHEMERIS_TYPE = 0
CLASSIFICATION_TYPE = U
NORAD_CAT_ID   = 87320
ELEMENT_SET_NO = 999
REV_AT_EPOCH   = 60093
BSTAR          = .22497E-2
MEAN_MOTION_DOT = .3632E-4
MEAN_MOTION_DDOT = 0

CCSDS_OMM_VERS = 2.0
CREATION_DATE  = 
ORIGINATOR     = 

OBJECT_NAME    = UNKNOWN
OBJECT_ID      = 
CENTER_NAME    = EARTH
REF_FRAME      = TEME
TIME_SYSTEM    = UTC
MEAN_ELEMENT_THEORY = SGP/SGP4

EPOCH          = 2026-02-03T08:51:42.383520
MEAN_MOTION    = 14.09170498
ECCENTRICITY   = .0062871
INCLINATION    = 90.0023
RA_OF_ASC_NODE = 271.6835
ARG_OF_PERICENTER = 66.4926
MEAN_ANOMALY   = 294.2847

EPHEMERIS_TYPE = 0
CLASSIFICATION_TYPE = U
NORAD_CAT_ID   = 87334
ELEMENT_SET_NO = 999
REV_AT_EPOCH   = 39405
BSTAR          = .11457E-1
MEAN_MOTION_DOT = .20315E-3
MEAN_MOTION_DDOT = 0

CCSDS_OMM_VERS = 2.0
CREATION_DATE  = 
ORIGINATOR     = 

OBJECT_NAME    = UNKNOWN
OBJECT_ID      = 
CENTER_NAME    = EARTH
REF_FRAME      = TEME
TIME_SYSTEM    = UTC
MEAN_ELEMENT_THEORY = SGP/SGP4

EPOCH          = 2026-02-02T02:11:07.059552
MEAN_MOTION    = 14.09290523
ECCENTRICITY   = .0082778
INCLINATION    = 89.9900
RA_OF_ASC_NODE = 267.9071
ARG_OF_PERICENTER = 51.9202
MEAN_ANOMALY   = 308.9411

EPHEMERIS_TYPE = 0
CLASSIFICATION_TYPE = U
NORAD_CAT_ID   = 87335
ELEMENT_SET_NO = 999
REV_AT_EPOCH   = 39420
BSTAR          = .81983E-2
MEAN_MOTION_DOT = .14758E-3
MEAN_MOTION_DDOT = 0

CCSDS_OMM_VERS = 2.0
CREATION_DATE  = 
ORIGINATOR     = 

OBJECT_NAME    = UNKNOWN
OBJECT_ID      = 
CENTER_NAME    = EARTH
REF_FRAME      = TEME
TIME_SYSTEM    = UTC
MEAN_ELEMENT_THEORY = SGP/SGP4

EPOCH          = 2026-02-03T09:01:22.869696
MEAN_MOTION    = 13.96615791
ECCENTRICITY   = .0057785
INCLINATION    = 82.7502
RA_OF_ASC_NODE = 18.5801
ARG_OF_PERICENTER = 176.2794
MEAN_ANOMALY   = 183.8816

EPHEMERIS_TYPE = 0
CLASSIFICATION_TYPE = U
NORAD_CAT_ID   = 87405
ELEMENT_SET_NO = 999
REV_AT_EPOCH   = 61850
BSTAR          = .16607E-2
MEAN_MOTION_DOT = .2347E-4
MEAN_MOTION_DDOT = 0

CCSDS_OMM_VERS = 2.0
CREATION_DATE  = 
ORIGINATOR     = 

OBJECT_NAME    = UNKNOWN
OBJECT_ID      = 
CENTER_NAME    = EARTH
REF_FRAME      = TEME
TIME_SYSTEM    = UTC
MEAN_ELEMENT_THEORY = SGP/SGP4

EPOCH          = 2026-02-03T10:21:06.467040
MEAN_MOTION    = 14.30285648
ECCENTRICITY   = .0068425
INCLINATION    = 65.7817
RA_OF_ASC_NODE = 191.6213
ARG_OF_PERICENTER = 269.3264
MEAN_ANOMALY   = 121.4624

EPHEMERIS_TYPE = 0
CLASSIFICATION_TYPE = U
NORAD_CAT_ID   = 87426
ELEMENT_SET_NO = 999
REV_AT_EPOCH   = 63012
BSTAR          = .21444E-2
MEAN_MOTION_DOT = .5628E-4
MEAN_MOTION_DDOT = 0

CCSDS_OMM_VERS = 2.0
CREATION_DATE  = 
ORIGINATOR     = 

OBJECT_NAME    = UNKNOWN
OBJECT_ID      = 
CENTER_NAME    = EARTH
REF_FRAME      = TEME
TIME_SYSTEM    = UTC
MEAN_ELEMENT_THEORY = SGP/SGP4

EPOCH          = 2026-02-03T12:48:58.079520
MEAN_MOTION    = 13.90784151
ECCENTRICITY   = .0063119
INCLINATION    = 100.4523
RA_OF_ASC_NODE = 252.5777
ARG_OF_PERICENTER = 66.4519
MEAN_ANOMALY   = 294.3250

EPHEMERIS_TYPE = 0
CLASSIFICATION_TYPE = U
NORAD_CAT_ID   = 87448
ELEMENT_SET_NO = 999
REV_AT_EPOCH   = 61657
BSTAR          = .12146E-2
MEAN_MOTION_DOT = .1489E-4
MEAN_MOTION_DDOT = 0

CCSDS_OMM_VERS = 2.0
CREATION_DATE  = 
ORIGINATOR     = 

OBJECT_NAME    = UNKNOWN
OBJECT_ID      = 
CENTER_NAME    = EARTH
REF_FRAME      = TEME
TIME_SYSTEM    = UTC
MEAN_ELEMENT_THEORY = SGP/SGP4

EPOCH          = 2026-02-02T05:09:39.092256
MEAN_MOTION    = 14.14700066
ECCENTRICITY   = .0509857
INCLINATION    = 65.7778
RA_OF_ASC_NODE = 314.2507
ARG_OF_PERICENTER = 338.5357
MEAN_ANOMALY   = 19.5004

EPHEMERIS_TYPE = 0
CLASSIFICATION_TYPE = U
NORAD_CAT_ID   = 87456
ELEMENT_SET_NO = 999
REV_AT_EPOCH   = 61877
BSTAR          = .19467E-2
MEAN_MOTION_DOT = .13524E-3
MEAN_MOTION_DDOT = 0

CCSDS_OMM_VERS = 2.0
CREATION_DATE  = 
ORIGINATOR     = 

OBJECT_NAME    = UNKNOWN
OBJECT_ID      = 
CENTER_NAME    = EARTH
REF_FRAME      = TEME
TIME_SYSTEM    = UTC
MEAN_ELEMENT_THEORY = SGP/SGP4

EPOCH          = 2026-01-21T18:40:28.258176
MEAN_MOTION    = 13.61546179
ECCENTRICITY   = .0675698
INCLINATION    = 65.8185
RA_OF_ASC_NODE = 135.2421
ARG_OF_PERICENTER = 287.3753
MEAN_ANOMALY   = 146.8912

EPHEMERIS_TYPE = 0
CLASSIFICATION_TYPE = U
NORAD_CAT_ID   = 87517
ELEMENT_SET_NO = 999
REV_AT_EPOCH   = 59836
BSTAR          = .22318E-2
MEAN_MOTION_DOT = .8188E-4
MEAN_MOTION_DDOT = 0

